0 FENGYUN 1C DEB
1 32228U 99025CWA 13283.23297736  .00003444  00000-0  11712-2 0  3744
2 32228 098.7501 287.7663 0107601 271.0514 087.8365 14.34023977329475
0 FENGYUN 1C DEB
1 32228U 99025CWA 13285.81458422  .00003552  00000-0  12084-2 0  3755
2 32228 098.7536 290.3858 0106585 262.8492 096.0722 14.34043766329840
0 FENGYUN 1C DEB
1 32228U 99025CWA 13289.23341717  .00003928  00000-0  13327-2 0  3762
2 32228 098.7498 293.8408 0107205 253.8660 105.1386 14.34075306330332
0 FENGYUN 1C DEB
1 32228U 99025CWA 13290.83813915  .00004133  00000-0  14000-2 0  3773
2 32228 098.7480 295.4575 0107576 248.9420 110.0637 14.34091259330560
0 FENGYUN 1C DEB
1 32228U 99025CWA 13293.21031476  .00004460  00000-0  15077-2 0  3781
2 32228 098.7465 297.8535 0108267 242.1370 116.9257 14.34116414330905
0 FENGYUN 1C DEB
1 32228U 99025CWA 13294.25684624  .00004469  00000-0  15101-2 0  3793
2 32228 098.7466 298.9125 0108254 239.0623 119.9905 14.34125988331051
0 FENGYUN 1C DEB
1 32228U 99025CWA 13296.21036848  .00004547  00000-0  15366-2 0  3802
2 32228 098.7452 300.8884 0107796 233.6354 125.4777 14.34144757331337
